IRIDIUM 144             
1 43249U 18030A   26016.97244672  .00000085  00000+0  23441-4 0  9990
2 43249  86.3984 353.6135 0002218  83.2711 276.8738 14.34217249408463
IRIDIUM 149             
1 43250U 18030B   26016.97878967  .00000014  00000+0 -22244-5 0  9996
2 43250  86.3981 353.5800 0002096  86.5936 273.5499 14.34217670408487
IRIDIUM 157             
1 43251U 18030C   26016.92804332  .00000201  00000+0  64864-4 0  9997
2 43251  86.3983 353.6505 0002125  87.3173 272.8266 14.34217053408454
IRIDIUM 140             
1 43252U 18030D   26016.94707559  .00000244  00000+0  80122-4 0  9995
2 43252  86.3984 353.6556 0002304  84.8277 275.3181 14.34218060408518
IRIDIUM 145             
1 43253U 18030E   26016.93438875  .00000184  00000+0  58511-4 0  9997
2 43253  86.3982 353.6333 0002278  78.3480 281.7971 14.34217599408440
IRIDIUM 146             
1 43254U 18030F   26016.98513251  .00000009  00000+0 -39483-5 0  9990
2 43254  86.3984 353.6254 0002045  81.7336 278.4092 14.34217432408460
IRIDIUM 148             
1 43255U 18030G   26016.95341937 -.00000036  00000+0 -19880-4 0  9997
2 43255  86.3983 353.6793 0001973  85.8165 274.3256 14.34217268408499
IRIDIUM 142             
1 43256U 18030H   26016.92171523  .00000222  00000+0  72049-4 0  9998
2 43256  86.3981 353.5868 0002261  77.2522 282.8927 14.34218907408459
